{
  "type": "FeatureCollection",
  "features": [
    {
      "type": "Feature",
      "properties": {
        "norad_id": 39160,
        "name": "VNREDSAT 1",
        "group": "resource",
        "lat": -41.276373295963644,
        "lon": -149.97155121369508,
        "alt_km": 684.6641884227092,
        "timestamp": "2025-12-07T14:37:04.866348+00:00",
        "meta_object_name": "VNREDSAT 1",
        "meta_object_id": "2013-021B",
        "meta_epoch": "2025-12-06T21:12:58.256640",
        "meta_mean_motion": 14.64909273,
        "meta_eccentricity": 0.00013218,
        "meta_inclination": 97.9381,
        "meta_ra_of_asc_node": 36.364,
        "meta_arg_of_pericenter": 83.1157,
        "meta_mean_anomaly": 277.0197,
        "meta_ephemeris_type": 0,
        "meta_classification_type": "U",
        "meta_norad_cat_id": 39160,
        "meta_element_set_no": 999,
        "meta_rev_at_epoch": 67213,
        "meta_bstar": 0.0002494949,
        "meta_mean_motion_dot": 1.288e-05,
        "meta_mean_motion_ddot": 0,
        "tle_line1": "1 39160U 13021B   25340.88400760  .00001288  00000+0  24949-3 0  9992",
        "tle_line2": "2 39160  97.9381  36.3640 0001321  83.1157 277.0197 14.64909273672139"
      },
      "geometry": {
        "type": "Point",
        "coordinates": [
          -149.97155121369508,
          -41.276373295963644
        ]
      }
    },
    {
      "type": "Feature",
      "properties": {
        "norad_id": 39227,
        "name": "ARIRANG-5 (KOMPSAT-5)",
        "group": "resource",
        "lat": -68.64162005903232,
        "lon": -174.0077673535728,
        "alt_km": 562.3741307787632,
        "timestamp": "2025-12-07T14:37:04.866359+00:00",
        "meta_object_name": "ARIRANG-5 (KOMPSAT-5)",
        "meta_object_id": "2013-042A",
        "meta_epoch": "2025-12-06T21:22:14.365920",
        "meta_mean_motion": 15.0452254,
        "meta_eccentricity": 0.00039492,
        "meta_inclination": 97.615,
        "meta_ra_of_asc_node": 165.2783,
        "meta_arg_of_pericenter": 73.6348,
        "meta_mean_anomaly": 286.5312,
        "meta_ephemeris_type": 0,
        "meta_classification_type": "U",
        "meta_norad_cat_id": 39227,
        "meta_element_set_no": 999,
        "meta_rev_at_epoch": 67494,
        "meta_bstar": 0.0001905071,
        "meta_mean_motion_dot": 2.608e-05,
        "meta_mean_motion_ddot": 0,
        "tle_line1": "1 39227U 13042A   25340.89044405  .00002608  00000+0  19051-3 0  9995",
        "tle_line2": "2 39227  97.6150 165.2783 0003949  73.6348 286.5312 15.04522540674946"
      },
      "geometry": {
        "type": "Point",
        "coordinates": [
          -174.0077673535728,
          -68.64162005903232
        ]
      }
    },
    {
      "type": "Feature",
      "properties": {
        "norad_id": 39418,
        "name": "SKYSAT-A",
        "group": "resource",
        "lat": 7.234654953265053,
        "lon": -147.0795616974444,
        "alt_km": 531.8516783003606,
        "timestamp": "2025-12-07T14:37:04.866370+00:00",
        "meta_object_name": "SKYSAT-A",
        "meta_object_id": "2013-066C",
        "meta_epoch": "2025-12-06T20:22:41.317248",
        "meta_mean_motion": 15.11536644,
        "meta_eccentricity": 0.00205533,
        "meta_inclination": 97.411,
        "meta_ra_of_asc_node": 31.2368,
        "meta_arg_of_pericenter": 258.357,
        "meta_mean_anomaly": 101.5354,
        "meta_ephemeris_type": 0,
        "meta_classification_type": "U",
        "meta_norad_cat_id": 39418,
        "meta_element_set_no": 999,
        "meta_rev_at_epoch": 65941,
        "meta_bstar": 0.00032311569,
        "meta_mean_motion_dot": 5.441e-05,
        "meta_mean_motion_ddot": 0,
        "tle_line1": "1 39418U 13066C   25340.84908932  .00005441  00000+0  32312-3 0  9995",
        "tle_line2": "2 39418  97.4110  31.2368 0020553 258.3570 101.5354 15.11536644659417"
      },
      "geometry": {
        "type": "Point",
        "coordinates": [
          -147.0795616974444,
          7.234654953265053
        ]
      }
    },
    {
      "type": "Feature",
      "properties": {
        "norad_id": 39419,
        "name": "DUBAISAT-2",
        "group": "resource",
        "lat": 14.72789930222657,
        "lon": -29.794914183775703,
        "alt_km": 536.1242435102668,
        "timestamp": "2025-12-07T14:37:04.866381+00:00",
        "meta_object_name": "DUBAISAT-2",
        "meta_object_id": "2013-066D",
        "meta_epoch": "2025-12-06T22:37:48.753696",
        "meta_mean_motion": 15.08269005,
        "meta_eccentricity": 0.00111209,
        "meta_inclination": 97.444,
        "meta_ra_of_asc_node": 331.5292,
        "meta_arg_of_pericenter": 342.1586,
        "meta_mean_anomaly": 17.925,
        "meta_ephemeris_type": 0,
        "meta_classification_type": "U",
        "meta_norad_cat_id": 39419,
        "meta_element_set_no": 999,
        "meta_rev_at_epoch": 65739,
        "meta_bstar": 0.00050359972,
        "meta_mean_motion_dot": 7.757e-05,
        "meta_mean_motion_ddot": 0,
        "tle_line1": "1 39419U 13066D   25340.94292539  .00007757  00000+0  50360-3 0  9991",
        "tle_line2": "2 39419  97.4440 331.5292 0011120 342.1586  17.9250 15.08269005657395"
      },
      "geometry": {
        "type": "Point",
        "coordinates": [
          -29.794914183775703,
          14.72789930222657
        ]
      }
    },
    {
      "type": "Feature",
      "properties": {
        "norad_id": 39574,
        "name": "GPM-CORE",
        "group": "resource",
        "lat": 2.5137807841893376,
        "lon": 48.69851596504035,
        "alt_km": 432.26715582615907,
        "timestamp": "2025-12-07T14:37:04.866392+00:00",
        "meta_object_name": "GPM-CORE",
        "meta_object_id": "2014-009C",
        "meta_epoch": "2025-12-06T22:19:18.615648",
        "meta_mean_motion": 15.4534838,
        "meta_eccentricity": 0.00105369,
        "meta_inclination": 64.9743,
        "meta_ra_of_asc_node": 232.1492,
        "meta_arg_of_pericenter": 269.5357,
        "meta_mean_anomaly": 90.4576,
        "meta_ephemeris_type": 0,
        "meta_classification_type": "U",
        "meta_norad_cat_id": 39574,
        "meta_element_set_no": 999,
        "meta_rev_at_epoch": 66811,
        "meta_bstar": 0.00044820888,
        "meta_mean_motion_dot": 0.0002136,
        "meta_mean_motion_ddot": 0,
        "tle_line1": "1 39574U 14009C   25340.93007657  .00021360  00000+0  44821-3 0  9996",
        "tle_line2": "2 39574  64.9743 232.1492 0010536 269.5357  90.4576 15.45348380668112"
      },
      "geometry": {
        "type": "Point",
        "coordinates": [
          48.69851596504035,
          2.5137807841893376
        ]
      }
    },
    {
      "type": "Feature",
      "properties": {
        "norad_id": 39634,
        "name": "SENTINEL-1A",
        "group": "resource",
        "lat": -8.045822127988801,
        "lon": 165.76107253636602,
        "alt_km": 699.8939545516523,
        "timestamp": "2025-12-07T14:37:04.866402+00:00",
        "meta_object_name": "SENTINEL-1A",
        "meta_object_id": "2014-016A",
        "meta_epoch": "2025-12-06T22:56:52.090080",
        "meta_mean_motion": 14.59198895,
        "meta_eccentricity": 0.00012454,
        "meta_inclination": 98.1803,
        "meta_ra_of_asc_node": 346.2829,
        "meta_arg_of_pericenter": 89.3819,
        "meta_mean_anomaly": 270.7523,
        "meta_ephemeris_type": 0,
        "meta_classification_type": "U",
        "meta_norad_cat_id": 39634,
        "meta_element_set_no": 999,
        "meta_rev_at_epoch": 62198,
        "meta_bstar": 8.7437411e-05,
        "meta_mean_motion_dot": 3.66e-06,
        "meta_mean_motion_ddot": 0,
        "tle_line1": "1 39634U 14016A   25340.95615845  .00000366  00000+0  87437-4 0  9991",
        "tle_line2": "2 39634  98.1803 346.2829 0001245  89.3819 270.7523 14.59198895621981"
      },
      "geometry": {
        "type": "Point",
        "coordinates": [
          165.76107253636602,
          -8.045822127988801
        ]
      }
    },
    {
      "type": "Feature",
      "properties": {
        "norad_id": 39731,
        "name": "KAZEOSAT 1",
        "group": "resource",
        "lat": 60.271688662487975,
        "lon": -111.47545754307005,
        "alt_km": 745.1271168932672,
        "timestamp": "2025-12-07T14:37:04.866412+00:00",
        "meta_object_name": "KAZEOSAT 1",
        "meta_object_id": "2014-024A",
        "meta_epoch": "2025-12-06T21:25:03.181152",
        "meta_mean_motion": 14.42057369,
        "meta_eccentricity": 0.00010729,
        "meta_inclination": 98.3442,
        "meta_ra_of_asc_node": 52.9309,
        "meta_arg_of_pericenter": 99.7315,
        "meta_mean_anomaly": 260.3996,
        "meta_ephemeris_type": 0,
        "meta_classification_type": "U",
        "meta_norad_cat_id": 39731,
        "meta_element_set_no": 999,
        "meta_rev_at_epoch": 61084,
        "meta_bstar": 0.0001564987,
        "meta_mean_motion_dot": 4.71e-06,
        "meta_mean_motion_ddot": 0,
        "tle_line1": "1 39731U 14024A   25340.89239793  .00000471  00000+0  15650-3 0  9999",
        "tle_line2": "2 39731  98.3442  52.9309 0001072  99.7315 260.3996 14.42057369610842"
      },
      "geometry": {
        "type": "Point",
        "coordinates": [
          -111.47545754307005,
          60.271688662487975
        ]
      }
    }
  ]
}